      2.10          N: GNSS NAV DATA                        RINEX VERSION / TYPE
fic2rin                                 06/13/2018 00:44:03 PGM / RUN BY / DATE
                                                            END OF HEADER
31 18  6 12 16  0  0.0 1.150937750936e-04-2.614797267597e-12 0.000000000000e+00
    9.400000000000e+01 1.330000000000e+02 4.293750280505e-09-1.650749321707e+00
    6.567686796188e-06 8.743040496483e-03 1.008436083794e-05 5.153681808472e+03
    2.304000000000e+05-4.470348358154e-08 1.677184331859e-01-1.136213541031e-07
    9.635481402191e-01 1.901250000000e+02-1.273269504900e-01-7.882828351442e-09
    2.860833450911e-10 1.000000000000e+00 2.005000000000e+03 0.000000000000e+00
    2.400000000000e+00 0.000000000000e+00-1.350417733192e-08 9.400000000000e+01
    2.232060000000e+05 4.000000000000e+00
30 18  6 12 16  0  0.0 6.333272904158e-05-4.433786671143e-12 0.000000000000e+00
    5.600000000000e+01 1.355937500000e+02 4.593762777230e-09-1.391812600776e+00
    6.752088665962e-06 3.494679229334e-03 1.087784767151e-05 5.153738626480e+03
    2.304000000000e+05 2.235174179077e-08 1.884931485019e-01-2.235174179077e-08
    9.444893093137e-01 1.582187500000e+02-3.064407515776e+00-8.094265730086e-09
    2.653681965077e-10 1.000000000000e+00 2.005000000000e+03 0.000000000000e+00
    2.400000000000e+00 0.000000000000e+00 3.725290298462e-09 5.600000000000e+01
    2.232060000000e+05 4.000000000000e+00
27 18  6 12 16  0  0.0 3.661848604679e-04-1.477928890381e-12 0.000000000000e+00
    2.800000000000e+01-1.456250000000e+02 4.257677349352e-09 1.391242925846e+00
   -7.338821887970e-06 5.989450030029e-03 6.744638085365e-06 5.153689857483e+03
    2.304000000000e+05 2.421438694000e-08 2.228433614793e+00 1.695007085800e-07
    9.774889902600e-01 2.584687500000e+02 4.347154845591e-01-8.141053393266e-09
   -4.925205154564e-10 1.000000000000e+00 2.005000000000e+03 0.000000000000e+00
    2.400000000000e+00 0.000000000000e+00 1.396983861923e-09 2.800000000000e+01
    2.232060000000e+05 4.000000000000e+00
24 18  6 12 16  0  0.0-5.105743184686e-05-5.684341886081e-13 0.000000000000e+00
    6.300000000000e+01 1.118750000000e+02 4.720196615135e-09-5.092891687724e-01
    5.999580025673e-06 6.943614804186e-03 1.063570380211e-05 5.153653478622e+03
    2.304000000000e+05 6.891787052155e-08 9.518895023614e-02 6.332993507385e-08
    9.419721042106e-01 1.669375000000e+02 5.429337537473e-01-8.182483690432e-09
    9.750406143553e-11 1.000000000000e+00 2.005000000000e+03 0.000000000000e+00
    2.400000000000e+00 0.000000000000e+00 2.793967723846e-09 6.300000000000e+01
    2.232060000000e+05 4.000000000000e+00
23 18  6 12 16  0  0.0-2.159657888114e-04 4.547473508865e-13 0.000000000000e+00
    3.200000000000e+01-1.946875000000e+01 4.968421240402e-09 5.787648877664e-02
   -9.182840585709e-07 1.259391463827e-02 9.231269359589e-06 5.153780237198e+03
    2.304000000000e+05 5.401670932770e-08-9.238502489283e-01 2.440065145493e-07
    9.433347685139e-01 1.943437500000e+02-2.355158985574e+00-8.309631843806e-09
   -5.918103655629e-10 1.000000000000e+00 2.005000000000e+03 0.000000000000e+00
    2.400000000000e+00 0.000000000000e+00-2.002343535423e-08 3.200000000000e+01
    2.232060000000e+05 4.000000000000e+00
25 18  6 12 16  0  0.0-5.998169071972e-04-5.911715561524e-12 0.000000000000e+00
    8.200000000000e+01 5.450000000000e+01 4.652336645638e-09-2.529098349155e+00
    2.795830368996e-06 7.479205029085e-03 4.172325134277e-07 5.153636596680e+03
    2.304000000000e+05 2.048909664154e-07 1.188015800415e+00-1.154839992523e-07
    9.739269427321e-01 3.777187500000e+02 8.680726248120e-01-8.403921485634e-09
    2.289381076197e-10 1.000000000000e+00 2.005000000000e+03 0.000000000000e+00
    3.400000000000e+00 0.000000000000e+00 6.053596735001e-09 8.200000000000e+01
    2.232060000000e+05 4.000000000000e+00
26 18  6 12 16  0  0.0-1.180092804134e-04 1.239186531166e-11 0.000000000000e+00
    4.400000000000e+01 5.296875000000e+01 5.125927801182e-09-3.060605264414e+00
    2.812594175339e-06 2.775439759716e-03 2.123415470123e-07 5.153669261932e+03
    2.304000000000e+05-3.166496753693e-08 1.165757839773e+00-7.450580596924e-08
    9.554699899717e-01 3.744687500000e+02 1.255341282918e-01-8.612501602404e-09
    1.996511734156e-10 1.000000000000e+00 2.005000000000e+03 0.000000000000e+00
    2.400000000000e+00 0.000000000000e+00 7.450580596924e-09 4.400000000000e+01
    2.232060000000e+05 4.000000000000e+00
28 18  6 12 16  0  0.0 7.230811752379e-04 3.069544618484e-12 0.000000000000e+00
    4.700000000000e+01 5.009375000000e+01 4.330894684862e-09 2.283586717719e+00
    2.298504114151e-06 1.948226848617e-02-2.998858690262e-07 5.153682075500e+03
    2.304000000000e+05 1.750886440277e-07 1.271153686482e+00-1.434236764908e-07
    9.855485160973e-01 3.940937500000e+02-1.519499758270e+00-8.093551414617e-09
    2.000083311498e-11 1.000000000000e+00 2.005000000000e+03 0.000000000000e+00
    2.400000000000e+00 0.000000000000e+00-1.117587089539e-08 4.700000000000e+01
    2.232060000000e+05 4.000000000000e+00
24 18  6 12 15 59 44.0-5.105976015329e-05-5.684341886081e-13 0.000000000000e+00
    0.000000000000e+00 1.118750000000e+02 4.720196615135e-09-5.116211962421e-01
    5.999580025673e-06 6.943613057956e-03 1.063570380211e-05 5.153653486252e+03
    2.303840000000e+05 6.891787052155e-08 9.518908775044e-02 6.332993507385e-08
    9.419721056735e-01 1.669375000000e+02 5.429319675243e-01-8.182483690432e-09
    9.750406143553e-11 1.000000000000e+00 2.005000000000e+03 0.000000000000e+00
    2.400000000000e+00 0.000000000000e+00 2.793967723846e-09 0.000000000000e+00
    2.268960000000e+05 4.000000000000e+00
25 18  6 12 15 59 44.0-5.998173728585e-04-5.911715561524e-12 0.000000000000e+00
    1.000000000000e+00 5.450000000000e+01 4.652336645638e-09-2.531431906837e+00
    2.795830368996e-06 7.479201769456e-03 4.172325134277e-07 5.153636596680e+03
    2.303840000000e+05 2.048909664154e-07 1.188015945244e+00-1.154839992523e-07
    9.739269354175e-01 3.777187500000e+02 8.680723585610e-01-8.404278643368e-09
    2.285809498855e-10 1.000000000000e+00 2.005000000000e+03 0.000000000000e+00
    2.400000000000e+00 0.000000000000e+00 6.053596735001e-09 1.000000000000e+00
    2.281260000000e+05 4.000000000000e+00
25 18  6 12 17 59 44.0-5.998597480357e-04-5.911715561524e-12 0.000000000000e+00
    3.000000000000e+00 6.246875000000e+01 4.635193074397e-09-1.481358433759e+00
    3.360211849213e-06 7.479343097657e-03 3.036111593246e-07 5.153634809494e+03
    2.375840000000e+05 1.452863216400e-07 1.187955124425e+00 2.793967723846e-08
    9.739290917588e-01 3.788750000000e+02 8.682037900470e-01-8.392135280405e-09
    3.164417524977e-10 1.000000000000e+00 2.005000000000e+03 0.000000000000e+00
    2.400000000000e+00 0.000000000000e+00 6.053596735001e-09 3.000000000000e+00
    2.304060000000e+05 4.000000000000e+00
24 18  6 12 17 59 44.0-5.106348544359e-05-5.684341886081e-13 0.000000000000e+00
    1.200000000000e+01 1.126250000000e+02 4.652336645638e-09 5.384673375774e-01
    5.848705768585e-06 6.942968699150e-03 1.127459108829e-05 5.153652296066e+03
    2.375840000000e+05-1.862645149231e-09 9.513070415282e-02 1.434236764908e-07
    9.419729278334e-01 1.548125000000e+02 5.430391248107e-01-8.111052143593e-09
    4.393040130612e-11 1.000000000000e+00 2.005000000000e+03 0.000000000000e+00
    2.400000000000e+00 0.000000000000e+00 2.793967723846e-09 1.200000000000e+01
    2.304060000000e+05 4.000000000000e+00
 1 18  6 12 18  0  0.0-5.570752546191e-05-3.410605131648e-12 0.000000000000e+00
    5.400000000000e+01-2.621875000000e+01 4.122314568091e-09 2.639535249181e-01
   -1.268461346626e-06 7.891468587331e-03 1.213699579239e-05 5.153673063278e+03
    2.376000000000e+05-3.725290298462e-09-2.998850736342e+00 1.396983861923e-07
    9.718501637459e-01 1.472812500000e+02 6.387115065665e-01-7.815325539679e-09
    3.789443559820e-10 1.000000000000e+00 2.005000000000e+03 0.000000000000e+00
    3.400000000000e+00 0.000000000000e+00 5.587935447693e-09 5.400000000000e+01
    2.304060000000e+05 4.000000000000e+00
 5 18  6 12 18  0  0.0-6.273854523897e-06 6.821210263297e-13 0.000000000000e+00
    3.700000000000e+01 2.078125000000e+01 5.218074496605e-09-3.015452335934e+00
    1.050531864166e-06 5.396861000918e-03 5.347654223442e-06 5.153709283829e+03
    2.376000000000e+05 1.303851604462e-08-1.978336773850e+00-3.725290298462e-08
    9.476100719917e-01 2.697812500000e+02 6.137444381536e-01-8.267844388905e-09
    3.053698627377e-10 1.000000000000e+00 2.005000000000e+03 0.000000000000e+00
    2.400000000000e+00 0.000000000000e+00-1.117587089539e-08 3.700000000000e+01
    2.304060000000e+05 4.000000000000e+00
 3 18  6 12 18  0  0.0 8.790288120508e-05 6.707523425575e-12 0.000000000000e+00
    3.100000000000e+01 1.268750000000e+01 4.988779231251e-09-6.113448809225e-01
    5.178153514862e-07 1.436149585061e-03 5.142763257027e-06 5.153727979660e+03
    2.376000000000e+05 6.146728992462e-08-1.956274035237e+00 3.352761268616e-08
    9.607020038375e-01 2.808125000000e+02 4.331826243665e-01-8.245700609385e-09
    1.246480492344e-10 1.000000000000e+00 2.005000000000e+03 0.000000000000e+00
    2.400000000000e+00 0.000000000000e+00 2.328306436539e-09 3.100000000000e+01
    2.304060000000e+05 4.000000000000e+00
 2 18  6 12 18  0  0.0 8.787680417299e-05-1.091393642128e-11 0.000000000000e+00
    8.000000000000e+01-4.987500000000e+01 4.601263089648e-09 5.954672180455e-01
   -2.475455403328e-06 1.786945899948e-02 1.259334385395e-05 5.153758752823e+03
    2.376000000000e+05-2.160668373108e-07-3.060284825375e+00 6.519258022308e-08
    9.509225120481e-01 1.393125000000e+02-1.852518226489e+00-8.221413883460e-09
    2.435815747217e-10 1.000000000000e+00 2.005000000000e+03 0.000000000000e+00
    2.400000000000e+00 0.000000000000e+00-2.048909664154e-08 8.000000000000e+01
    2.304060000000e+05 4.000000000000e+00
